NORAD_CAT_ID,OBJECT_NAME,OBJECT_TYPE,EPOCH,MEAN_MOTION,ECCENTRICITY,INCLINATION,RA_OF_ASC_NODE,ARG_OF_PERICENTER,MEAN_ANOMALY,BSTAR,MEAN_MOTION_DOT,MEAN_MOTION_DDOT,TLE_LINE0,TLE_LINE1,TLE_LINE2,SEMIMAJOR_AXIS,PERIOD,APOGEE,PERIGEE,DECAYED
53847.0,STARLINK-4777,PAYLOAD,2023-03-01 03:26:42,15.08832632,0.0001202,53.2163,212.549,77.3626,282.7501,-1.1079e-06,-3.05e-06,0.0,0 STARLINK-4777,1 53847U 22114AF  23060.14354793 -.00000305  00000-0 -11079-5 0  9997,2 53847  53.2163 212.5490 0001202  77.3626 282.7501 15.08832632 25682,6917.903,95.438,540.599,538.936,0.0
53847.0,STARLINK-4777,PAYLOAD,2023-03-01 14:34:24,15.08840953,0.0001279,53.2164,210.4675,73.8283,286.2849,0.00026153,3.877e-05,0.0,0 STARLINK-4777,1 53847U 22114AF  23060.60722676  .00003877  00000-0  26153-3 0  9999,2 53847  53.2164 210.4675 0001279  73.8283 286.2849 15.08840953 26296,6917.877,95.437,540.627,538.858,0.0
53847.0,STARLINK-4777,PAYLOAD,2023-03-02 16:00:34,15.08845718,0.0001259,53.217,205.7092,81.2,278.9135,0.00031607,4.747e-05,0.0,0 STARLINK-4777,1 53847U 22114AF  23061.66706759  .00004747  00000-0  31607-3 0  9997,2 53847  53.2170 205.7092 0001259  81.2000 278.9135 15.08845718 26459,6917.863,95.437,540.599,538.857,0.0
53847.0,STARLINK-4777,PAYLOAD,2023-03-03 12:40:34,15.0885198,0.0001314,53.2173,201.8438,84.35,275.7642,0.00016478,2.336e-05,0.0,0 STARLINK-4777,1 53847U 22114AF  23062.52818180  .00002336  00000-0  16478-3 0  9996,2 53847  53.2173 201.8438 0001314  84.3500 275.7642 15.08851980 26045,6917.844,95.437,540.618,538.8,0.0
53847.0,STARLINK-4777,PAYLOAD,2023-03-03 17:26:43,15.08861756,0.0001297,53.2176,200.952,90.2296,269.8845,0.00030174,4.52e-05,0.0,0 STARLINK-4777,1 53847U 22114AF  23062.72689577  .00004520  00000-0  30174-3 0  9990,2 53847  53.2176 200.9520 0001297  90.2296 269.8845 15.08861756 26072,6917.814,95.436,540.576,538.782,0.0
53847.0,STARLINK-4777,PAYLOAD,2023-03-04 09:20:36,15.08835289,0.0001038,53.2169,197.9778,101.0382,259.0726,-7.3756e-05,-1.461e-05,0.0,0 STARLINK-4777,1 53847U 22114AF  23063.38930694 -.00001461  00000-0 -73756-4 0  9999,2 53847  53.2169 197.9778 0001038 101.0382 259.0726 15.08835289 26176,6917.895,95.438,540.478,539.042,0.0
53847.0,STARLINK-4777,PAYLOAD,2023-03-04 12:31:22,15.08840242,0.0001375,53.217,197.3829,108.1423,251.9719,2.2417e-05,6.9e-07,0.0,0 STARLINK-4777,1 53847U 22114AF  23063.52178559  .00000069  00000-0  22417-4 0  9998,2 53847  53.2170 197.3829 0001375 108.1423 251.9719 15.08840242 26737,6917.88,95.438,540.696,538.793,0.0
53847.0,STARLINK-4777,PAYLOAD,2023-03-04 17:17:31,15.08849619,0.0001166,53.2172,196.4909,106.7521,253.3599,0.00039377,5.986e-05,0.0,0 STARLINK-4777,1 53847U 22114AF  23063.72050240  .00005986  00000-0  39377-3 0  9991,2 53847  53.2172 196.4909 0001166 106.7521 253.3599 15.08849619 26222,6917.851,95.437,540.523,538.909,0.0
53847.0,STARLINK-4777,PAYLOAD,2023-03-05 07:36:00,15.08843059,0.0002307,53.2163,193.8126,77.4108,282.7142,0.00043501,6.642e-05,0.0,0 STARLINK-4777,1 53847U 22114AF  23064.31666868  .00006642  00000-0  43501-3 0  9990,2 53847  53.2163 193.8126 0002307  77.4108 282.7142 15.08843059 26319,6917.871,95.437,541.332,538.14,0.0
53847.0,STARLINK-4777,PAYLOAD,2023-03-05 09:11:23,15.08843102,0.0002108,53.2162,193.5152,69.9914,290.1305,0.00045187,6.911e-05,0.0,0 STARLINK-4777,1 53847U 22114AF  23064.38290806  .00006911  00000-0  45187-3 0  9993,2 53847  53.2162 193.5152 0002108  69.9914 290.1305 15.08843102 26867,6917.871,95.437,541.194,538.278,0.0
53847.0,STARLINK-4777,PAYLOAD,2023-03-06 01:05:14,15.088433,0.0001667,53.2161,190.5439,81.3128,278.8053,0.00038524,5.849e-05,0.0,0 STARLINK-4777,1 53847U 22114AF  23065.04530744  .00005849  00000-0  38524-3 0  9991,2 53847  53.2161 190.5439 0001667  81.3128 278.8053 15.08843300 26420,6917.87,95.437,540.889,538.582,0.0
53847.0,STARLINK-4777,PAYLOAD,2023-03-06 18:34:28,15.08856408,0.0002189,53.2162,187.2718,78.9289,281.1949,0.00042172,6.433e-05,0.0,0 STARLINK-4777,1 53847U 22114AF  23065.77394221  .00006433  00000-0  42172-3 0  9993,2 53847  53.2162 187.2718 0002189  78.9289 281.1949 15.08856408 27070,6917.83,95.437,541.21,538.181,0.0
53847.0,STARLINK-4777,PAYLOAD,2023-03-07 00:56:01,15.08835286,0.0001386,53.2169,186.0822,82.1098,278.0052,-8.3523e-05,-1.617e-05,0.0,0 STARLINK-4777,1 53847U 22114AF  23066.03890585 -.00001617  00000-0 -83523-4 0  9994,2 53847  53.2169 186.0822 0001386  82.1098 278.0052 15.08835286 26578,6917.895,95.438,540.719,538.801,0.0
53847.0,STARLINK-4777,PAYLOAD,2023-03-07 16:49:52,15.08853884,0.0001438,53.2191,183.1108,89.7309,270.3848,0.00037394,5.671e-05,0.0,0 STARLINK-4777,1 53847U 22114AF  23066.70130132  .00005671  00000-0  37394-3 0  9999,2 53847  53.2191 183.1108 0001438  89.7309 270.3848 15.08853884 26677,6917.838,95.437,540.698,538.708,0.0
53847.0,STARLINK-4777,PAYLOAD,2023-03-08 00:46:48,15.08834279,0.0001066,53.2184,181.6239,103.5141,256.597,-5.7688e-06,-3.8e-06,0.0,0 STARLINK-4777,1 53847U 22114AF  23067.03250639 -.00000380  00000-0 -57688-5 0  9995,2 53847  53.2184 181.6239 0001066 103.5141 256.5970 15.08834279 26728,6917.898,95.438,540.5,539.025,0.0
53847.0,STARLINK-4777,PAYLOAD,2023-03-08 16:40:40,15.08839945,0.0001416,53.2179,178.6506,98.3101,261.8051,0.00023186,3.404e-05,0.0,0 STARLINK-4777,1 53847U 22114AF  23067.69490960  .00003404  00000-0  23186-3 0  9992,2 53847  53.2179 178.6506 0001416  98.3101 261.8051 15.08839945 27366,6917.881,95.438,540.725,538.766,0.0
53847.0,STARLINK-4777,PAYLOAD,2023-03-09 06:59:09,15.08840015,0.0002039,53.2179,175.9755,82.69,277.4324,0.00031097,4.664e-05,0.0,0 STARLINK-4777,1 53847U 22114AF  23068.29107659  .00004664  00000-0  31097-3 0  9998,2 53847  53.2179 175.9755 0002039  82.6900 277.4324 15.08840015 26913,6917.88,95.438,541.156,538.335,0.0
53847.0,STARLINK-4777,PAYLOAD,2023-03-09 13:20:40,15.08857339,0.0001897,53.2182,174.7845,113.3244,246.7948,0.00078121,0.00012173,0.0,0 STARLINK-4777,1 53847U 22114AF  23068.55602858  .00012173  00000-0  78121-3 0  9991,2 53847  53.2182 174.7845 0001897 113.3244 246.7948 15.08857339 27490,6917.827,95.436,541.005,538.38,0.0
53847.0,STARLINK-4777,PAYLOAD,2023-03-10 00:28:23,15.0884747,0.000174,53.2185,172.7038,92.8743,267.2448,0.00037762,5.728e-05,0.0,0 STARLINK-4777,1 53847U 22114AF  23069.01971189  .00005728  00000-0  37762-3 0  9993,2 53847  53.2185 172.7038 0001740  92.8743 267.2448 15.08847470 27024,6917.858,95.437,540.926,538.519,0.0
53847.0,STARLINK-4777,PAYLOAD,2023-03-10 11:36:05,15.08821677,0.0001459,53.218,170.6217,103.8722,256.2432,-0.00023328,-3.997e-05,0.0,0 STARLINK-4777,1 53847U 22114AF  23069.48340138 -.00003997  00000-0 -23328-3 0  9999,2 53847  53.2180 170.6217 0001459 103.8722 256.2432 15.08821677 27091,6917.936,95.439,540.811,538.792,0.0
53847.0,STARLINK-4777,PAYLOAD,2023-03-10 13:11:28,15.08830422,0.0001505,53.2173,170.3213,111.0501,249.0652,-3.0883e-05,-7.79e-06,0.0,0 STARLINK-4777,1 53847U 22114AF  23069.54963935 -.00000779  00000-0 -30883-4 0  9992,2 53847  53.2173 170.3213 0001505 111.0501 249.0652 15.08830422 27108,6917.91,95.438,540.816,538.734,0.0
53847.0,STARLINK-4777,PAYLOAD,2023-03-11 09:51:30,15.08839038,0.0001297,53.2176,166.461,97.859,262.255,0.00027413,4.077e-05,0.0,0 STARLINK-4777,1 53847U 22114AF  23070.41076586  .00004077  00000-0  27413-3 0  9994,2 53847  53.2176 166.4610 0001297  97.8590 262.2550 15.08839038 27774,6917.883,95.438,540.646,538.851,0.0
53847.0,STARLINK-4777,PAYLOAD,2023-03-11 11:26:53,15.08839861,0.0001143,53.2169,166.1637,101.1226,258.9895,0.00036062,5.456e-05,0.0,0 STARLINK-4777,1 53847U 22114AF  23070.47700446  .00005456  00000-0  36062-3 0  9991,2 53847  53.2169 166.1637 0001143 101.1226 258.9895 15.08839861 27786,6917.881,95.438,540.537,538.955,0.0
53847.0,STARLINK-4777,PAYLOAD,2023-03-12 08:06:54,15.08840882,0.0001039,53.2166,162.2971,109.0519,251.0586,0.00030586,4.583e-05,0.0,0 STARLINK-4777,1 53847U 22114AF  23071.33812652  .00004583  00000-0  30586-3 0  9995,2 53847  53.2166 162.2971 0001039 109.0519 251.0586 15.08840882 27378,6917.878,95.437,540.461,539.024,0.0
53847.0,STARLINK-4777,PAYLOAD,2023-03-12 11:17:40,15.08842243,0.0001275,53.2176,161.7027,115.8186,244.2937,0.00035992,5.445e-05,0.0,0 STARLINK-4777,1 53847U 22114AF  23071.47060546  .00005445  00000-0  35992-3 0  9991,2 53847  53.2176 161.7027 0001275 115.8186 244.2937 15.08842243 27931,6917.874,95.437,540.621,538.857,0.0
53847.0,STARLINK-4777,PAYLOAD,2023-03-12 12:53:02,15.08850751,9.21e-05,53.2166,161.4041,119.4931,240.6153,0.00038405,5.831e-05,0.0,0 STARLINK-4777,1 53847U 22114AF  23071.53683977  .00005831  00000-0  38405-3 0  9998,2 53847  53.2166 161.4041 0000921 119.4931 240.6153 15.08850751 27403,6917.848,95.437,540.35,539.075,0.0
53847.0,STARLINK-4777,PAYLOAD,2023-03-12 14:28:25,15.08853279,9.01e-05,53.2161,161.105,126.1162,233.9914,0.0004112,6.265e-05,0.0,0 STARLINK-4777,1 53847U 22114AF  23071.60307791  .00006265  00000-0  41120-3 0  9993,2 53847  53.2161 161.1050 0000901 126.1162 233.9914 15.08853279 27952,6917.84,95.437,540.328,539.082,0.0
53847.0,STARLINK-4777,PAYLOAD,2023-03-13 04:46:55,15.08831847,8.67e-05,53.2165,158.4314,104.6716,255.4372,-0.00013316,-2.406e-05,0.0,0 STARLINK-4777,1 53847U 22114AF  23072.19924853 -.00002406  00000-0 -13316-3 0  9993,2 53847  53.2165 158.4314 0000867 104.6716 255.4372 15.08831847 27500,6917.905,95.438,540.37,539.171,0.0
53847.0,STARLINK-4777,PAYLOAD,2023-03-13 06:22:18,15.08831979,0.0001043,53.2166,158.1335,97.7493,262.3618,-6.758e-05,-1.363e-05,0.0,0 STARLINK-4777,1 53847U 22114AF  23072.26549107 -.00001363  00000-0 -67580-4 0  9990,2 53847  53.2166 158.1335 0001043  97.7493 262.3618 15.08831979 28059,6917.905,95.438,540.491,539.048,0.0
53847.0,STARLINK-4777,PAYLOAD,2023-03-14 10:59:14,15.08850127,0.0001437,53.2164,152.7825,67.2036,292.9108,0.00032078,4.822e-05,0.0,0 STARLINK-4777,1 53847U 22114AF  23073.45780662  .00004822  00000-0  32078-3 0  9999,2 53847  53.2164 152.7825 0001437  67.2036 292.9108 15.08850127 27691,6917.849,95.437,540.709,538.72,0.0
